IRIDIUM 155             
1 43573U 18061E   26118.85451973  .00000034  00000+0  51327-5 0  9997
2 43573  86.3940  77.2988 0002394  87.4277 272.7193 14.34217625406284
IRIDIUM 154             
1 43574U 18061F   26118.83549167  .00000049  00000+0  10403-4 0  9994
2 43574  86.3943  77.4380 0002291  82.5409 277.6047 14.34217691406336
IRIDIUM 163             
1 43575U 18061G   26118.81646227  .00000150  00000+0  46397-4 0  9992
2 43575  86.3941  77.3628 0002226  89.1725 270.9726 14.34218859406305
IRIDIUM 156             
1 43576U 18061H   26118.86086264  .00000021  00000+0  58498-6 0  9991
2 43576  86.3941  77.3514 0002413  86.1464 274.0007 14.34217601406306
IRIDIUM 164             
1 43577U 18061J   26118.84183419  .00000176  00000+0  55933-4 0  9990
2 43577  86.3941  77.3990 0002241  81.6948 278.4502 14.34217706406349
IRIDIUM 159             
1 43578U 18061K   26118.87988970 -.00000032  00000+0 -18539-4 0  9993
2 43578  86.3941  77.3212 0002042  87.4158 272.7271 14.34217321406313
IRIDIUM 180             
1 43922U 19002A   26118.73984674  .00000163  00000+0  51007-4 0  9994
2 43922  86.4016  14.2625 0002047  85.7711 274.3719 14.34218814381909
IRIDIUM 176             
1 43923U 19002B   26118.74644750  .00000824  00000+0  12681-3 0  9992
2 43923  86.6133  14.2102 0002448  81.9188 278.2306 14.72261730391973
IRIDIUM 168             
1 43924U 19002C   26118.80328262  .00000248  00000+0  81358-4 0  9995
2 43924  86.4016  14.3116 0002152  84.8379 275.3062 14.34221190381895
IRIDIUM 173             
1 43925U 19002D   26118.79058927  .00000090  00000+0  24978-4 0  9992
2 43925  86.4011  14.2078 0002228  88.1517 271.9934 14.34218154381876
IRIDIUM 169             
1 43926U 19002E   26118.86764641  .00000320  00000+0  98030-4 0  9994
2 43926  86.4245  45.8027 0002851  91.3256 268.8269 14.38609886383135
IRIDIUM 172             
1 43927U 19002F   26118.78424050  .00000260  00000+0  85742-4 0  9992
2 43927  86.4013  14.2183 0002084  85.5532 274.5901 14.34220679381884
IRIDIUM 175             
1 43928U 19002G   26118.78457009  .00000115  00000+0  27956-4 0  9995
2 43928  86.4487 311.1867 0004664  51.8381 308.3239 14.43590724391851
IRIDIUM 171             
1 43929U 19002H   26118.76521942  .00000004  00000+0 -55750-5 0  9994
2 43929  86.4018  14.5268 0002237  82.4851 277.6599 14.34217743381872
IRIDIUM 170             
1 43930U 19002J   26118.75264437  .00000802  00000+0  12325-3 0  9992
2 43930  86.6133  14.2104 0002222  84.6902 275.4569 14.72257420391989
IRIDIUM 167             
1 43931U 19002K   26118.68910872  .00000014  00000+0 -21552-5 0  9996
2 43931  86.4009  14.2800 0002374  81.3839 278.7626 14.34217635381862
IRIDIUM 181             
1 56726U 23068S   26118.60526765  .00000307  00000+0  85200-4 0  9998
2 56726  86.4478  77.5132 0002084  80.7139 279.4298 14.43311283155284
IRIDIUM 177             
1 56727U 23068T   26118.77068822  .00001052  00000+0  13490-3 0  9991
2 56727  86.1991 352.2643 0002307  92.6418 267.5067 14.80240020159054
IRIDIUM 174             
1 56728U 23068U   26118.74028310  .00000843  00000+0  12977-3 0  9993
2 56728  86.6124  14.3563 0002811  95.1305 265.0233 14.72263032158740
IRIDIUM 178             
1 56729U 23068V   26118.82730465  .00001148  00000+0  14772-3 0  9998
2 56729  86.6561  45.9782 0002305  80.0052 280.1430 14.80227029159067
IRIDIUM 179             
1 56730U 23068W   26118.82193157  .00001197  00000+0  15413-3 0  9998
2 56730  86.6784  54.8140 0002785  81.5501 278.6036 14.80226372159064
